OBJECT_NAME,OBJECT_ID,EPOCH,MEAN_MOTION,ECCENTRICITY,INCLINATION,RA_OF_ASC_NODE,ARG_OF_PERICENTER,MEAN_ANOMALY,EPHEMERIS_TYPE,CLASSIFICATION_TYPE,NORAD_CAT_ID,ELEMENT_SET_NO,REV_AT_EPOCH,BSTAR,MEAN_MOTION_DOT,MEAN_MOTION_DDOT
COSMOS 2532 (RODNIK-S 18),2018-097C,2026-07-12T07:12:33.088608,12.42910356,.00181649,82.5115,206.5360,7.1390,352.9945,0,U,43753,999,34539,.46528899E-4,.16E-6,0
MINXSS-2,2018-099A,2026-07-11T18:55:58.552032,15.48644977,.00083797,97.4535,269.8221,170.8889,189.2515,0,U,43758,999,41793,.45525209E-3,.24308E-3,0
SIRION PATHFINDER-2,2018-099B,2026-07-11T16:35:34.223712,15.14760800,.00081287,97.4245,241.1675,204.5244,155.5602,0,U,43759,999,41633,.16707902E-3,.3035E-4,0
AISTECHSAT 2,2018-099L,2026-07-11T23:31:04.262016,15.15694393,.0004274,97.4284,240.4726,191.0762,169.0378,0,U,43768,999,41603,.15256159E-3,.2839E-4,0
FOX-1CLIFF (AO-95),2018-099N,2026-07-12T02:39:13.856256,15.27232320,.00070528,97.4378,253.2714,252.7613,107.2854,0,U,43770,999,41702,.26835197E-3,.7092E-4,0
RANGE-A,2018-099R,2026-07-09T15:46:08.743296,15.13579951,.0008493,97.3959,232.5795,267.8830,92.1429,0,U,43773,999,41589,.18729816E-3,.3299E-4,0
SNUSAT-2,2018-099AA,2026-07-12T02:51:04.279392,15.22210508,.00098992,97.4053,246.1228,198.7770,161.3102,0,U,43782,999,41682,.20615726E-3,.4672E-4,0
SNUGLITE,2018-099AC,2026-07-12T02:28:45.679008,15.27714104,.0003307,97.3862,247.1441,167.6677,192.4643,0,U,43784,999,41712,.26686171E-3,.7154E-4,0
ITASAT,2018-099AE,2026-07-12T02:47:47.467968,15.19358576,.00108039,97.4020,244.1331,262.7378,97.2629,0,U,43786,999,41669,.17556651E-3,.3649E-4,0
EAGLET-I,2018-099AJ,2026-07-12T02:49:35.980320,15.13120493,.00094981,97.4222,242.1267,256.5989,103.4184,0,U,43790,999,41610,.11637323E-3,.1999E-4,0
ESEO,2018-099AL,2026-07-12T01:24:00.083520,15.04313700,.00108094,97.3953,229.3804,245.9652,114.0444,0,U,43792,999,41554,.10054681E-3,.1344E-4,0
THEA,2018-099AQ,2026-07-12T03:53:40.069248,15.35866498,.00077246,97.4439,263.1100,184.4059,175.7118,0,U,43796,999,41652,.32200701E-3,.11171E-3,0
ASTROCAST 0.1,2018-099AS,2026-07-11T18:53:39.405696,15.51278683,.00058759,97.4385,272.0791,144.9859,215.1780,0,U,43798,999,41824,.39344646E-3,.23019E-3,0
JY1SAT (JO-97),2018-099AX,2026-07-11T16:29:36.040416,15.34443331,.00065178,97.4124,255.6172,168.9842,191.1545,0,U,43803,999,41738,.301087E-3,.9972E-4,0
SUOMI-100,2018-099AY,2026-07-11T16:29:43.566720,15.28978367,.00101971,97.4182,252.9963,184.1974,175.9182,0,U,43804,999,41716,.26127374E-3,.7288E-4,0
CENTAURI-1,2018-099BD,2026-07-12T01:58:03.280224,15.16606332,.00127512,97.4213,244.2684,236.7539,123.2473,0,U,43809,999,41627,.17764877E-3,.3411E-4,0
GLOBAL-2,2018-099BG,2026-07-12T01:52:49.077120,15.08815557,.00075861,97.3547,228.5567,75.7447,284.4625,0,U,43812,999,41566,.89458719E-4,.1348E-4,0
SEAHAWK-1,2018-099BQ,2026-07-11T15:26:00.423744,15.23202069,.00074803,97.3948,244.7594,211.7845,148.2941,0,U,43820,999,41625,.22168066E-3,.5177E-4,0
SAUDISAT 5A,2018-102A,2026-07-12T07:24:59.748768,15.28302608,.00106749,97.3058,254.4076,52.8191,307.4022,0,U,43831,999,41951,.1237895E-3,.3344E-4,0
SAUDISAT 5B,2018-102C,2026-07-12T07:46:12.425088,15.28546441,.00114424,97.3168,257.5373,54.1427,306.0874,0,U,43833,999,41963,.11126423E-3,.3021E-4,0
ISAT,2018-111D,2026-07-11T19:13:16.488192,15.70261010,.00071391,97.5861,130.0063,146.3017,213.8700,0,U,43879,999,41502,.63877923E-3,.78043E-3,0
UWE-4,2018-111E,2026-07-12T05:58:38.177472,15.47689372,.00057349,97.5842,122.8225,206.6658,153.4298,0,U,43880,999,41465,.39696767E-3,.20464E-3,0
D-STAR ONE (SPARROW),2018-111F,2026-07-11T18:55:13.674144,15.83665674,.00067114,97.6096,136.1309,142.9832,217.1901,0,U,43881,999,41525,.77361269E-3,.172546E-2,0
JILIN-1 09,2019-005B,2026-07-12T07:37:00.053472,15.20725931,.00025687,97.4746,288.0689,42.1453,317.9980,0,U,43943,999,41296,.12096334E-3,.2591E-4,0
JILIN-1 10,2019-005E,2026-07-12T07:24:53.904672,15.25987103,.00082938,97.4796,292.1183,179.5417,180.5830,0,U,43946,999,41314,.14014251E-3,.353E-4,0
EGYPTSAT-A (MISRSAT-A),2019-008A,2026-07-12T06:55:50.585088,14.72334876,.00016921,98.0188,257.7126,95.7641,264.3760,0,U,44047,999,39693,.67331187E-4,.376E-5,0
EMISAT,2019-018A,2026-07-12T07:17:00.238272,14.43648242,.00191973,98.4640,251.9640,139.4293,220.8333,0,U,44078,999,38368,.11807532E-4,-.4E-7,0
JILIN-1 GAOFEN 3A,2019-032C,2026-07-12T07:18:49.179168,15.33153607,.00046972,44.9730,218.6432,82.8805,277.2614,0,U,44312,999,39169,.17538017E-3,.5418E-4,0
WT 1B,2019-032G,2026-07-12T07:31:07.215744,15.27691181,.00086859,44.9734,283.7399,18.3409,341.7785,0,U,44316,999,39092,.26023998E-3,.6889E-4,0
